IRIDIUM 63              
1 25286U 98021B   25158.49739017  .00000358  00000+0  11521-3 0  9992
2 25286  86.3976  86.1972 0002141  81.5405 278.6034 14.36540093422450
IRIDIUM 69              
1 25319U 98026A   25158.53974220  .00000495  00000+0  14795-3 0  9994
2 25319  86.3966  99.4997 0004513  70.3570 289.8116 14.40960512421679
IRIDIUM 71              
1 25320U 98026B   25158.54784137  .00000340  00000+0  99412-4 0  9992
2 25320  86.3966  94.1880 0004246 101.2356 258.9320 14.41151474422207
IRIDIUM 73              
1 25344U 98032C   25158.41188271  .00000470  00000+0  11211-3 0  9992
2 25344  86.4422  50.9690 0002683  73.3211 286.8289 14.51706710429146
IRIDIUM 82              
1 25467U 98051A   25157.83865727  .00022177  00000+0  64264-3 0  9996
2 25467  86.3657 114.8250 0084014 338.2031  21.5650 15.31889523422371
